{
    "CCSDS_OMM_VERS": "3.0",
    "COMMENT": "GENERATED VIA SPACE-TRACK.ORG API",
    "CREATION_DATE": "2025-11-24T07:26:19",
    "ORIGINATOR": "18 SPCS",
    "OBJECT_NAME": "BEIDOU 3 G2",
    "OBJECT_ID": "2020-017A",
    "CENTER_NAME": "EARTH",
    "REF_FRAME": "TEME",
    "TIME_SYSTEM": "UTC",
    "MEAN_ELEMENT_THEORY": "SGP4",
    "EPOCH": "2025-11-24T04:07:33.250368",
    "MEAN_MOTION": "1.00272335",
    "ECCENTRICITY": "0.00039530",
    "INCLINATION": "2.9647",
    "RA_OF_ASC_NODE": "43.3910",
    "ARG_OF_PERICENTER": "266.3593",
    "MEAN_ANOMALY": "255.6030",
    "EPHEMERIS_TYPE": "0",
    "CLASSIFICATION_TYPE": "U",
    "NORAD_CAT_ID": "45344",
    "ELEMENT_SET_NO": "999",
    "REV_AT_EPOCH": "2120",
    "BSTAR": "0.00000000000000",
    "MEAN_MOTION_DOT": "-0.00000122",
    "MEAN_MOTION_DDOT": "0.0000000000000",
    "SEMIMAJOR_AXIS": "42164.578",
    "PERIOD": "1436.089",
    "APOAPSIS": "35803.110",
    "PERIAPSIS": "35769.775",
    "OBJECT_TYPE": "PAYLOAD",
    "RCS_SIZE": "LARGE",
    "COUNTRY_CODE": "PRC",
    "LAUNCH_DATE": "2020-03-09",
    "SITE": "XSC",
    "DECAY_DATE": null,
    "FILE": "4897025",
    "GP_ID": "303368148",
    "TLE_LINE0": "0 BEIDOU 3 G2",
    "TLE_LINE1": "1 45344U 20017A   25328.17191262 -.00000122  00000-0  00000+0 0  9994",
    "TLE_LINE2": "2 45344   2.9647  43.3910 0003953 266.3593 255.6030  1.00272335 21203"
}